start=new Date('2022-07-17T00:00:00.000Z').valueOf();
sats=[{"SITE":"AFETR","INCLINATION":"53.0568","CENTER_NAME":"EARTH","REF_FRAME":"TEME","BSTAR":"0.00027457000000","EPHEMERIS_TYPE":"0","APOAPSIS":"548.177","OBJECT_TYPE":"PAYLOAD","PERIOD":"95.592","OBJECT_ID":"2020-070T","CLASSIFICATION_TYPE":"U","MEAN_MOTION":"15.06404068","OBJECT_NAME":"STARLINK-1700","PERIAPSIS":"546.225","MEAN_ANOMALY":"273.1465","MEAN_MOTION_DOT":"0.00003811","REV_AT_EPOCH":"9875","RCS_SIZE":"LARGE","EPOCH":"2022-07-16T19:31:53.997888","SEMIMAJOR_AXIS":"6925.336","GP_ID":"208268942","MEAN_MOTION_DDOT":"0.0000000000000","FILE":"3515618","ELEMENT_SET_NO":"999","NORAD_CAT_ID":"46549","DECAY_DATE":null,"TLE_LINE1":"1 46549U 20070T   22197.81381942  .00003811  00000-0  27457-3 0  9995","RA_OF_ASC_NODE":"35.6474","ECCENTRICITY":"0.00014090","ARG_OF_PERICENTER":"86.9686","COUNTRY_CODE":"US","TIME_SYSTEM":"UTC","LAUNCH_DATE":"2020-10-06","TLE_LINE2":"2 46549  53.0568  35.6474 0001409  86.9686 273.1465 15.06404068 98754","MEAN_ELEMENT_THEORY":"SGP4"},{"FILE":"3515618","MEAN_MOTION_DDOT":"0.0000000000000","ELEMENT_SET_NO":"999","NORAD_CAT_ID":"46550","TLE_LINE1":"1 46550U 20070U   22197.86541969  .00000168  00000-0  30164-4 0  9991","DECAY_DATE":null,"ARG_OF_PERICENTER":"63.7076","RA_OF_ASC_NODE":"35.4204","ECCENTRICITY":"0.00016000","COUNTRY_CODE":"US","LAUNCH_DATE":"2020-10-06","TIME_SYSTEM":"UTC","MEAN_ELEMENT_THEORY":"SGP4","TLE_LINE2":"2 46550  53.0555  35.4204 0001600  63.7076 296.4077 15.06399795 98768","SITE":"AFETR","INCLINATION":"53.0555","CENTER_NAME":"EARTH","REF_FRAME":"TEME","APOAPSIS":"548.322","BSTAR":"0.00003016400000","EPHEMERIS_TYPE":"0","OBJECT_TYPE":"PAYLOAD","PERIOD":"95.592","OBJECT_ID":"2020-070U","MEAN_MOTION":"15.06399795","CLASSIFICATION_TYPE":"U","OBJECT_NAME":"STARLINK-1701","PERIAPSIS":"546.106","REV_AT_EPOCH":"9876","RCS_SIZE":"LARGE","MEAN_ANOMALY":"296.4077","MEAN_MOTION_DOT":"0.00000168","SEMIMAJOR_AXIS":"6925.349","EPOCH":"2022-07-16T20:46:12.261216","GP_ID":"208268693"},{"MEAN_MOTION_DDOT":"0.0000000000000","FILE":"3515618","ELEMENT_SET_NO":"999","NORAD_CAT_ID":"46552","DECAY_DATE":null,"TLE_LINE1":"1 46552U 20070W   22197.82440956 -.00005946  00000-0 -38049-3 0  9993","ECCENTRICITY":"0.00015490","RA_OF_ASC_NODE":"20.5841","ARG_OF_PERICENTER":"74.4608","COUNTRY_CODE":"US","TIME_SYSTEM":"UTC","LAUNCH_DATE":"2020-10-06","TLE_LINE2":"2 46552  53.0565  20.5841 0001549  74.4608 285.6552 15.06413943 98978","MEAN_ELEMENT_THEORY":"SGP4","INCLINATION":"53.0565","CENTER_NAME":"EARTH","SITE":"AFETR","REF_FRAME":"TEME","BSTAR":"-0.00038049000000","EPHEMERIS_TYPE":"0","APOAPSIS":"548.244","OBJECT_TYPE":"PAYLOAD","CLASSIFICATION_TYPE":"U","MEAN_MOTION":"15.06413943","PERIOD":"95.591","OBJECT_ID":"2020-070W","PERIAPSIS":"546.098","OBJECT_NAME":"STARLINK-1649","MEAN_MOTION_DOT":"-0.00005946","MEAN_ANOMALY":"285.6552","REV_AT_EPOCH":"9897","RCS_SIZE":"LARGE","GP_ID":"208269432","EPOCH":"2022-07-16T19:47:08.985984","SEMIMAJOR_AXIS":"6925.306"},{"COUNTRY_CODE":"US","RA_OF_ASC_NODE":"5.4767","ECCENTRICITY":"0.00012910","ARG_OF_PERICENTER":"87.0545","TLE_LINE2":"2 46553  53.0561   5.4767 0001291  87.0545 273.0592 15.06398995 99186","MEAN_ELEMENT_THEORY":"SGP4","TIME_SYSTEM":"UTC","LAUNCH_DATE":"2020-10-06","ELEMENT_SET_NO":"999","MEAN_MOTION_DDOT":"0.0000000000000","FILE":"3515618","DECAY_DATE":null,"TLE_LINE1":"1 46553U 20070X   22197.85344562  .00001657  00000-0  13011-3 0  9998","NORAD_CAT_ID":"46553","OBJECT_NAME":"STARLINK-1664","PERIAPSIS":"546.323","OBJECT_ID":"2020-070X","PERIOD":"95.592","CLASSIFICATION_TYPE":"U","MEAN_MOTION":"15.06398995","EPOCH":"2022-07-16T20:28:57.701568","SEMIMAJOR_AXIS":"6925.352","GP_ID":"208268191","MEAN_MOTION_DOT":"0.00001657","MEAN_ANOMALY":"273.0592","RCS_SIZE":"LARGE","REV_AT_EPOCH":"9918","REF_FRAME":"TEME","SITE":"AFETR","CENTER_NAME":"EARTH","INCLINATION":"53.0561","OBJECT_TYPE":"PAYLOAD","EPHEMERIS_TYPE":"0","BSTAR":"0.00013011000000","APOAPSIS":"548.111"},{"NORAD_CAT_ID":"46554","TLE_LINE1":"1 46554U 20070Y   22197.77280714  .00003133  00000-0  22909-3 0  9995","DECAY_DATE":null,"FILE":"3515618","MEAN_MOTION_DDOT":"0.0000000000000","ELEMENT_SET_NO":"999","LAUNCH_DATE":"2020-10-06","TIME_SYSTEM":"UTC","MEAN_ELEMENT_THEORY":"SGP4","TLE_LINE2":"2 46554  53.0562  20.8170 0001442  96.5113 263.6040 15.06404206 98962","ARG_OF_PERICENTER":"96.5113","ECCENTRICITY":"0.00014420","RA_OF_ASC_NODE":"20.8170","COUNTRY_CODE":"US","APOAPSIS":"548.199","BSTAR":"0.00022909000000","EPHEMERIS_TYPE":"0","OBJECT_TYPE":"PAYLOAD","INCLINATION":"53.0562","CENTER_NAME":"EARTH","SITE":"AFETR","REF_FRAME":"TEME","REV_AT_EPOCH":"9896","RCS_SIZE":"LARGE","MEAN_MOTION_DOT":"0.00003133","MEAN_ANOMALY":"263.6040","GP_ID":"208268443","SEMIMAJOR_AXIS":"6925.336","EPOCH":"2022-07-16T18:32:50.536896","MEAN_MOTION":"15.06404206","CLASSIFICATION_TYPE":"U","OBJECT_ID":"2020-070Y","PERIOD":"95.592","PERIAPSIS":"546.202","OBJECT_NAME":"STARLINK-1671"},{"NORAD_CAT_ID":"46556","DECAY_DATE":null,"TLE_LINE1":"1 46556U 20070AA  22197.83224832  .00002672  00000-0  19817-3 0  9994","MEAN_MOTION_DDOT":"0.0000000000000","FILE":"3515618","ELEMENT_SET_NO":"999","TIME_SYSTEM":"UTC","LAUNCH_DATE":"2020-10-06","TLE_LINE2":"2 46556  53.0543  35.5547 0001586  82.6934 277.4235 15.06402551 98768","MEAN_ELEMENT_THEORY":"SGP4","RA_OF_ASC_NODE":"35.5547","ECCENTRICITY":"0.00015860","ARG_OF_PERICENTER":"82.6934","COUNTRY_CODE":"US","BSTAR":"0.00019817000000","EPHEMERIS_TYPE":"0","APOAPSIS":"548.304","OBJECT_TYPE":"PAYLOAD","INCLINATION":"53.0543","CENTER_NAME":"EARTH","SITE":"AFETR","REF_FRAME":"TEME","MEAN_MOTION_DOT":"0.00002672","MEAN_ANOMALY":"277.4235","REV_AT_EPOCH":"9876","RCS_SIZE":"LARGE","GP_ID":"208269193","EPOCH":"2022-07-16T19:58:26.254848","SEMIMAJOR_AXIS":"6925.341","CLASSIFICATION_TYPE":"U","MEAN_MOTION":"15.06402551","OBJECT_ID":"2020-070AA","PERIOD":"95.592","PERIAPSIS":"546.107","OBJECT_NAME":"STARLINK-1676"},{"OBJECT_TYPE":"PAYLOAD","APOAPSIS":"548.250","BSTAR":"0.00017214000000","EPHEMERIS_TYPE":"0","REF_FRAME":"TEME","CENTER_NAME":"EARTH","INCLINATION":"53.0552","SITE":"AFETR","GP_ID":"208268934","SEMIMAJOR_AXIS":"6925.371","EPOCH":"2022-07-16T19:25:55.714368","RCS_SIZE":"LARGE","REV_AT_EPOCH":"9897","MEAN_ANOMALY":"278.7581","MEAN_MOTION_DOT":"0.00002283","PERIAPSIS":"546.221","OBJECT_NAME":"STARLINK-1679","MEAN_MOTION":"15.06392826","CLASSIFICATION_TYPE":"U","PERIOD":"95.593","OBJECT_ID":"2020-070AB","TLE_LINE1":"1 46557U 20070AB  22197.80967262  .00002283  00000-0  17214-3 0  9990","DECAY_DATE":null,"NORAD_CAT_ID":"46557","ELEMENT_SET_NO":"999","FILE":"3515618","MEAN_MOTION_DDOT":"0.0000000000000","MEAN_ELEMENT_THEORY":"SGP4","TLE_LINE2":"2 46557  53.0552  20.6726 0001465  81.3574 278.7581 15.06392826 98979","LAUNCH_DATE":"2020-10-06","TIME_SYSTEM":"UTC","COUNTRY_CODE":"US","ARG_OF_PERICENTER":"81.3574","ECCENTRICITY":"0.00014650","RA_OF_ASC_NODE":"20.6726"},{"COUNTRY_CODE":"US","ECCENTRICITY":"0.00013570","RA_OF_ASC_NODE":"20.6175","ARG_OF_PERICENTER":"82.2696","TLE_LINE2":"2 46558  53.0568  20.6175 0001357  82.2696 277.8447 15.06396092 98947","MEAN_ELEMENT_THEORY":"SGP4","TIME_SYSTEM":"UTC","LAUNCH_DATE":"2020-10-06","ELEMENT_SET_NO":"999","MEAN_MOTION_DDOT":"0.0000000000000","FILE":"3515618","DECAY_DATE":null,"TLE_LINE1":"1 46558U 20070AC  22197.81704838  .00000587  00000-0  58296-4 0  9991","NORAD_CAT_ID":"46558","PERIAPSIS":"546.286","OBJECT_NAME":"STARLINK-1680","CLASSIFICATION_TYPE":"U","MEAN_MOTION":"15.06396092","PERIOD":"95.592","OBJECT_ID":"2020-070AC","GP_ID":"208267692","EPOCH":"2022-07-16T19:36:32.980032","SEMIMAJOR_AXIS":"6925.361","MEAN_MOTION_DOT":"0.00000587","MEAN_ANOMALY":"277.8447","RCS_SIZE":"LARGE","REV_AT_EPOCH":"9894","REF_FRAME":"TEME","INCLINATION":"53.0568","CENTER_NAME":"EARTH","SITE":"AFETR","OBJECT_TYPE":"PAYLOAD","EPHEMERIS_TYPE":"0","BSTAR":"0.00005829600000","APOAPSIS":"548.165"},{"OBJECT_ID":"2020-070AD","PERIOD":"95.592","MEAN_MOTION":"15.06403352","CLASSIFICATION_TYPE":"U","OBJECT_NAME":"STARLINK-1681","PERIAPSIS":"546.244","REV_AT_EPOCH":"9917","RCS_SIZE":"LARGE","MEAN_MOTION_DOT":"0.00002333","MEAN_ANOMALY":"271.1496","SEMIMAJOR_AXIS":"6925.338","EPOCH":"2022-07-16T19:18:35.418240","GP_ID":"208268943","SITE":"AFETR","CENTER_NAME":"EARTH","INCLINATION":"53.0560","REF_FRAME":"TEME","APOAPSIS":"548.162","BSTAR":"0.00017545000000","EPHEMERIS_TYPE":"0","OBJECT_TYPE":"PAYLOAD","ARG_OF_PERICENTER":"88.9652","ECCENTRICITY":"0.00013850","RA_OF_ASC_NODE":"5.6756","COUNTRY_CODE":"US","LAUNCH_DATE":"2020-10-06","TIME_SYSTEM":"UTC","MEAN_ELEMENT_THEORY":"SGP4","TLE_LINE2":"2 46559  53.0560   5.6756 0001385  88.9652 271.1496 15.06403352 99179","FILE":"3515618","MEAN_MOTION_DDOT":"0.0000000000000","ELEMENT_SET_NO":"999","NORAD_CAT_ID":"46559","TLE_LINE1":"1 46559U 20070AD  22197.80457660  .00002333  00000-0  17545-3 0  9991","DECAY_DATE":null},{"OBJECT_TYPE":"PAYLOAD","EPHEMERIS_TYPE":"0","BSTAR":"0.00023609000000","APOAPSIS":"548.189","REF_FRAME":"TEME","SITE":"AFETR","CENTER_NAME":"EARTH","INCLINATION":"53.0572","EPOCH":"2022-07-16T19:57:46.745856","SEMIMAJOR_AXIS":"6925.352","GP_ID":"208268694","MEAN_MOTION_DOT":"0.00003237","MEAN_ANOMALY":"280.7130","RCS_SIZE":"LARGE","REV_AT_EPOCH":"9897","OBJECT_NAME":"STARLINK-1706","PERIAPSIS":"546.245","OBJECT_ID":"2020-070AE","PERIOD":"95.592","CLASSIFICATION_TYPE":"U","MEAN_MOTION":"15.06398860","DECAY_DATE":null,"TLE_LINE1":"1 46560U 20070AE  22197.83179104  .00003237  00000-0  23609-3 0  9992","NORAD_CAT_ID":"46560","ELEMENT_SET_NO":"999","MEAN_MOTION_DDOT":"0.0000000000000","FILE":"3515618","TLE_LINE2":"2 46560  53.0572  20.5540 0001404  79.4017 280.7130 15.06398860 98978","MEAN_ELEMENT_THEORY":"SGP4","TIME_SYSTEM":"UTC","LAUNCH_DATE":"2020-10-06","COUNTRY_CODE":"US","ECCENTRICITY":"0.00014040","RA_OF_ASC_NODE":"20.5540","ARG_OF_PERICENTER":"79.4017"}];
